SAUDISAT 5A             
1 43831U 18102A   26178.51117475  .00005963  00000+0  21960-3 0  9999
2 43831  97.3069 239.8932 0011307  97.8127 262.4397 15.28151624417254
SAUDISAT 5B             
1 43833U 18102C   26178.52830167  .00005444  00000+0  19916-3 0  9994
2 43833  97.3178 242.9984 0012041  99.5829 260.6772 15.28402443417371
GAOFEN-10R              
1 44622U 19066A   26178.54418218  .00001135  00000+0  14627-3 0  9999
2 44622  98.0500 132.1988 0007156  98.3531 261.8494 14.83021364363910
CARTOSAT-3              
1 44804U 19081A   26178.49782142  .00004204  00000+0  20249-3 0  9999
2 44804  97.4312 240.1992 0013328 115.4043 244.8572 15.19210771365033
GAOFEN-12 01            
1 44819U 19082A   26178.48822905  .00000398  00000+0  58675-4 0  9992
2 44819  97.8101 184.5957 0001891  59.5848 300.5551 14.80466459355617
CSG-1                   
1 44873U 19092A   26178.51546685  .00000414  00000+0  58572-4 0  9990
2 44873  97.8889   1.9684 0001459  90.2067 269.9313 14.82161531353004
NEMO-HD                 
1 46277U 20061F   26178.49464770  .00011003  00000+0  23679-3 0  9994
2 46277  97.1922 240.3440 0001749  74.3700 285.7742 15.44797089323576
SENTINEL-6A             
1 46984U 20086A   26178.23535510 -.00000072  00000+0 -47364-4 0  9993
2 46984  66.0409 114.1826 0007853 270.0109  90.0006 12.80929986261618
CAS500-1                
1 47932U 21022A   26178.52915946  .00006350  00000+0  29627-3 0  9999
2 47932  97.3896  73.5732 0003596 244.3056 115.7809 15.20187039292339
GAOFEN-12 02            
1 48079U 21026A   26178.50039373  .00000382  00000+0  57060-4 0  9997
2 48079  97.9923 176.6389 0004472 183.4707 176.6474 14.80303727283289
PLEIADES NEO 3          
1 48268U 21034A   26178.51808316 -.00000032  00000+0  25278-5 0  9998
2 48268  97.8938 253.1362 0001442  87.3322 272.8056 14.81672864279186
PLEIADES NEO 4          
1 49070U 21073E   26178.48430432  .00001257  00000+0  16639-3 0  9997
2 49070  97.8936 253.0992 0001328  85.7659 274.3706 14.81670020262893
LANDSAT 9               
1 49260U 21088A   26178.22235097  .00000330  00000+0  83391-4 0  9997
2 49260  98.2279 248.2783 0001257  85.1324 275.0017 14.57103648252462
CSG-2                   
1 51444U 22008A   26178.48169375  .00000720  00000+0  97005-4 0  9990
2 51444  97.8888   1.9301 0001569  87.2182 272.9210 14.82152962238119
GAOFEN-12 03            
1 52912U 22069A   26178.53212705  .00001282  00000+0  17599-3 0  9993
2 52912  97.8277  66.1412 0002390  92.6822 267.4664 14.80051620216140
SWOT                    
1 54754U 22173A   26178.56348437  .00000003  00000+0  38032-5 0  9997
2 54754  77.6102  21.3019 0000291  85.4789 274.6396 14.00170765180602
GAOFEN-12 04            
1 57654U 23123A   26178.54824840  .00000931  00000+0  13065-3 0  9997
2 57654  97.9116  96.4157 0003978  85.6480 274.5186 14.79744814154161
PARS 1                  
1 59065U 24039Q   26178.54228513  .00011332  00000+0  23414-3 0  9993
2 59065  97.4819 159.7894 0011459  81.3509 278.9038 15.45934902130243
RESURS-P 4              
1 59371U 24061A   26178.51679547  .00003248  00000+0  10698-3 0  9999
2 59371  97.2753 126.2358 0002808 114.5414 245.6121 15.32187669125349
LEGION 1                
1 59625U 24081A   26178.45306666  .00003514  00000+0  18250-3 0  9993
2 59625  97.5021 256.2004 0008507 341.5439  18.5484 15.16732912119098
LEGION 2                
1 59626U 24081B   26178.48319250  .00003808  00000+0  19755-3 0  9997
2 59626  97.5021 256.3275 0009999 304.2366  55.7919 15.16712081119104
ALOS-4 (DAICHI-4)       
1 60182U 24123A   26178.57398087  .00001457  00000+0  20195-3 0  9996
2 60182  97.9218 275.6010 0001573  96.5589 263.5801 14.79478128107413
LEGION 3                
1 60452U 24146A   26178.47589676  .00003813  00000+0  20835-3 0  9995
2 60452  45.0023 335.3732 0008633 229.6963 130.3162 15.16025654103584
LEGION 4                
1 60453U 24146B   26178.41313687  .00004304  00000+0  23275-3 0  9994
2 60453  45.0020  67.6195 0012609   4.0643 356.0336 15.16108432102426
SENTINEL-2C             
1 60989U 24157A   26178.17253628  .00000102  00000+0  55597-4 0  9996
2 60989  98.5692 252.8134 0000917  89.1947 270.9341 14.30820373 94418
IONOSFERA-M 1           
1 61735U 24199A   26178.53169727  .00000044  00000+0  39074-4 0  9995
2 61735  98.7161  51.5941 0002158  96.6259 263.5165 14.22756033129175
IONOSFERA-M 2           
1 61736U 24199B   26178.49564170  .00000056  00000+0  44640-4 0  9990
2 61736  98.7160  51.4690 0000602  40.2513 319.8709 14.22759350132296
PRSC-EO1                
1 62725U 25012A   26178.54311199  .00007440  00000+0  37176-3 0  9990
2 62725  97.4230 250.8005 0005637 209.1052 150.9868 15.17735593 79761
BIOMASS                 
1 63772U 25090A   26176.41992450  .00000661  00000+0  12495-3 0  9993
2 63772  98.0741   3.6181 0001429  94.8977 265.2391 14.67536962 61896
GOSAT-GW (IBUKI GW)     
1 64694U 25141A   26178.48554851  .00000882  00000+0  16392-3 0  9997
2 64694  98.0568 115.6353 0001441  84.2094 275.9275 14.67554708 53358
IONOSFERA-M 3           
1 64876U 25155A   26178.52257139  .00000034  00000+0  35294-4 0  9990
2 64876  98.6028 140.1675 0001589 139.5292 220.6004 14.21488101 47874
