OBJECT_NAME,OBJECT_ID,EPOCH,MEAN_MOTION,ECCENTRICITY,INCLINATION,RA_OF_ASC_NODE,ARG_OF_PERICENTER,MEAN_ANOMALY,EPHEMERIS_TYPE,CLASSIFICATION_TYPE,NORAD_CAT_ID,ELEMENT_SET_NO,REV_AT_EPOCH,BSTAR,MEAN_MOTION_DOT,MEAN_MOTION_DDOT
SAUDISAT 5A,2018-102A,2026-06-27T12:16:05.498400,15.28151624,.0011307,97.3069,239.8932,97.8127,262.4397,0,U,43831,999,41725,.2196E-3,.5963E-4,0
SAUDISAT 5B,2018-102C,2026-06-27T12:40:45.264288,15.28402443,.0012041,97.3178,242.9984,99.5829,260.6772,0,U,43833,999,41737,.19916E-3,.5444E-4,0
GAOFEN-10R,2019-066A,2026-06-27T13:03:37.340352,14.83021364,.0007156,98.0500,132.1988,98.3531,261.8494,0,U,44622,999,36391,.14627E-3,.1135E-4,0
CARTOSAT-3,2019-081A,2026-06-27T11:56:51.770688,15.19210771,.0013328,97.4312,240.1992,115.4043,244.8572,0,U,44804,999,36503,.20249E-3,.4204E-4,0
GAOFEN-12 01,2019-082A,2026-06-27T11:43:02.989920,14.80466459,.0001891,97.8101,184.5957,59.5848,300.5551,0,U,44819,999,35561,.58675E-4,.398E-5,0
CSG-1,2019-092A,2026-06-27T12:22:16.335840,14.82161531,.0001459,97.8889,1.9684,90.2067,269.9313,0,U,44873,999,35300,.58572E-4,.414E-5,0
NEMO-HD,2020-061F,2026-06-27T11:52:17.561280,15.44797089,.0001749,97.1922,240.3440,74.3700,285.7742,0,U,46277,999,32357,.23679E-3,.11003E-3,0
SENTINEL-6A,2020-086A,2026-06-27T05:38:54.680640,12.80929986,.0007853,66.0409,114.1826,270.0109,90.0006,0,U,46984,999,26161,-.47364E-4,-.72E-6,0
CAS500-1,2021-022A,2026-06-27T12:41:59.377344,15.20187039,.0003596,97.3896,73.5732,244.3056,115.7809,0,U,47932,999,29233,.29627E-3,.635E-4,0
GAOFEN-12 02,2021-026A,2026-06-27T12:00:34.018272,14.80303727,.0004472,97.9923,176.6389,183.4707,176.6474,0,U,48079,999,28328,.5706E-4,.382E-5,0
PLEIADES NEO 3,2021-034A,2026-06-27T12:26:02.385024,14.81672864,.0001442,97.8938,253.1362,87.3322,272.8056,0,U,48268,999,27918,.25278E-5,-.32E-6,0
PLEIADES NEO 4,2021-073E,2026-06-27T11:37:23.893248,14.81670020,.0001328,97.8936,253.0992,85.7659,274.3706,0,U,49070,999,26289,.16639E-3,.1257E-4,0
LANDSAT 9,2021-088A,2026-06-27T05:20:11.123808,14.57103648,.0001257,98.2279,248.2783,85.1324,275.0017,0,U,49260,999,25246,.83391E-4,.33E-5,0
CSG-2,2022-008A,2026-06-27T11:33:38.340000,14.82152962,.0001569,97.8888,1.9301,87.2182,272.9210,0,U,51444,999,23811,.97005E-4,.72E-5,0
GAOFEN-12 03,2022-069A,2026-06-27T12:46:15.777120,14.80051620,.000239,97.8277,66.1412,92.6822,267.4664,0,U,52912,999,21614,.17599E-3,.1282E-4,0
SWOT,2022-173A,2026-06-27T13:31:25.049568,14.00170765,.0000291,77.6102,21.3019,85.4789,274.6396,0,U,54754,999,18060,.38032E-5,.3E-7,0
GAOFEN-12 04,2023-123A,2026-06-27T13:09:28.661760,14.79744814,.0003978,97.9116,96.4157,85.6480,274.5186,0,U,57654,999,15416,.13065E-3,.931E-5,0
PARS 1,2024-039Q,2026-06-27T13:00:53.435232,15.45934902,.0011459,97.4819,159.7894,81.3509,278.9038,0,U,59065,999,13024,.23414E-3,.11332E-3,0
RESURS-P 4,2024-061A,2026-06-27T12:24:11.128608,15.32187669,.0002808,97.2753,126.2358,114.5414,245.6121,0,U,59371,999,12534,.10698E-3,.3248E-4,0
LEGION 1,2024-081A,2026-06-27T10:52:24.959424,15.16732912,.0008507,97.5021,256.2004,341.5439,18.5484,0,U,59625,999,11909,.1825E-3,.3514E-4,0
LEGION 2,2024-081B,2026-06-27T11:35:47.832000,15.16712081,.0009999,97.5021,256.3275,304.2366,55.7919,0,U,59626,999,11910,.19755E-3,.3808E-4,0
ALOS-4 (DAICHI-4),2024-123A,2026-06-27T13:46:31.947168,14.79478128,.0001573,97.9218,275.6010,96.5589,263.5801,0,U,60182,999,10741,.20195E-3,.1457E-4,0
LEGION 3,2024-146A,2026-06-27T11:25:17.480064,15.16025654,.0008633,45.0023,335.3732,229.6963,130.3162,0,U,60452,999,10358,.20835E-3,.3813E-4,0
LEGION 4,2024-146B,2026-06-27T09:54:55.025568,15.16108432,.0012609,45.0020,67.6195,4.0643,356.0336,0,U,60453,999,10242,.23275E-3,.4304E-4,0
SENTINEL-2C,2024-157A,2026-06-27T04:08:27.134592,14.30820373,.00009177,98.5692,252.8134,89.1947,270.9341,0,U,60989,999,9441,.55597108E-4,.102E-5,0
IONOSFERA-M 1,2024-199A,2026-06-27T12:45:38.644128,14.22756033,.0002158,98.7161,51.5941,96.6259,263.5165,0,U,61735,999,12917,.39074E-4,.44E-6,0
IONOSFERA-M 2,2024-199B,2026-06-27T11:53:43.442880,14.22759350,.0000602,98.7160,51.4690,40.2513,319.8709,0,U,61736,999,13229,.4464E-4,.56E-6,0
PRSC-EO1,2025-012A,2026-06-27T13:02:04.875936,15.17735593,.0005637,97.4230,250.8005,209.1052,150.9868,0,U,62725,999,7976,.37176E-3,.744E-4,0
BIOMASS,2025-090A,2026-06-25T10:04:41.476800,14.67536962,.0001429,98.0741,3.6181,94.8977,265.2391,0,U,63772,999,6189,.12495E-3,.661E-5,0
GOSAT-GW (IBUKI GW),2025-141A,2026-06-27T11:39:11.391264,14.67554708,.0001441,98.0568,115.6353,84.2094,275.9275,0,U,64694,999,5335,.16392E-3,.882E-5,0
IONOSFERA-M 3,2025-155A,2026-06-27T12:32:30.168096,14.21488101,.0001589,98.6028,140.1675,139.5292,220.6004,0,U,64876,999,4787,.35294E-4,.34E-6,0
